NORAD_CAT_ID,OBJECT_NAME,OBJECT_TYPE,EPOCH,MEAN_MOTION,ECCENTRICITY,INCLINATION,RA_OF_ASC_NODE,ARG_OF_PERICENTER,MEAN_ANOMALY,BSTAR,MEAN_MOTION_DOT,MEAN_MOTION_DDOT,TLE_LINE0,TLE_LINE1,TLE_LINE2,SEMIMAJOR_AXIS,PERIOD,APOGEE,PERIGEE,DECAYED
53155.0,STARLINK-4088,PAYLOAD,2022-11-20 22:46:33,15.08828667,0.0001926,53.2154,172.4027,55.1315,304.9858,-0.00020818,-3.599e-05,0.0,0 STARLINK-4088,1 53155U 22083Z   22324.94899608 -.00003599  00000-0 -20818-3 0  9990,2 53155  53.2154 172.4027 0001926  55.1315 304.9858 15.08828667 20114,6917.915,95.438,541.112,538.448,0.0
53155.0,STARLINK-4088,PAYLOAD,2022-11-21 13:05:01,15.08830304,0.0001825,53.2157,169.7259,54.7411,305.3751,-0.00012785,-2.322e-05,0.0,0 STARLINK-4088,1 53155U 22083Z   22325.54515811 -.00002322  00000-0 -12785-3 0  9995,2 53155  53.2157 169.7259 0001825  54.7411 305.3751 15.08830304 20212,6917.91,95.438,541.038,538.513,0.0
53155.0,STARLINK-4088,PAYLOAD,2022-11-21 19:26:34,15.08832896,0.0001781,53.2152,168.5368,56.0871,304.029,-6.321e-05,-1.294e-05,0.0,0 STARLINK-4088,1 53155U 22083Z   22325.81011805 -.00001294  00000-0 -63210-4 0  9996,2 53155  53.2152 168.5368 0001781  56.0871 304.0290 15.08832896 20257,6917.901999999999,95.438,540.999,538.535,0.0
53155.0,STARLINK-4088,PAYLOAD,2022-11-21 22:37:20,15.08832668,0.0001758,53.2145,167.9415,55.1097,305.006,-4.7982e-05,-1.051e-05,0.0,0 STARLINK-4088,1 53155U 22083Z   22325.94259969 -.00001051  00000-0 -47982-4 0  9994,2 53155  53.2145 167.9415 0001758  55.1097 305.0060 15.08832668 20263,6917.903,95.438,540.984,538.552,0.0
53155.0,STARLINK-4088,PAYLOAD,2022-11-22 14:31:12,15.08833172,0.0001716,53.2143,164.9672,58.3807,301.7353,6.2402e-06,-1.89e-06,0.0,0 STARLINK-4088,1 53155U 22083Z   22326.60500401 -.00000189  00000-0  62402-5 0  9993,2 53155  53.2143 164.9672 0001716  58.3807 301.7353 15.08833172 20372,6917.901,95.438,540.953,538.5790000000002,0.0
53155.0,STARLINK-4088,PAYLOAD,2022-11-22 20:52:44,15.088356400000002,0.0001720999999999,53.2152,163.7782,59.9376,300.1787,7.6404e-05,9.28e-06,0.0,0 STARLINK-4088,1 53155U 22083Z   22326.86996432  .00000928  00000-0  76404-4 0  9990,2 53155  53.2152 163.7782 0001721  59.9376 300.1787 15.08835640 20416,6917.894,95.438,540.9490000000002,538.568,0.0
53155.0,STARLINK-4088,PAYLOAD,2022-11-23 01:38:54,15.08834442,0.0001743,53.215,162.8864,58.4063,301.7099,0.00018512,2.659e-05,0.0,0 STARLINK-4088,1 53155U 22083Z   22327.06868700  .00002659  00000-0  18512-3 0  9997,2 53155  53.2150 162.8864 0001743  58.4063 301.7099 15.08834442 20430,6917.897,95.438,540.9680000000002,538.557,0.0
53155.0,STARLINK-4088,PAYLOAD,2022-11-23 06:25:04,15.08835172,0.0001745,53.215,161.9943,57.2686,302.8474,0.0002551,3.774e-05,0.0,0 STARLINK-4088,1 53155U 22083Z   22327.26740845  .00003774  00000-0  25510-3 0  9993,2 53155  53.2150 161.9943 0001745  57.2686 302.8474 15.08835172 20472,6917.895,95.438,540.967,538.553,0.0
53155.0,STARLINK-4088,PAYLOAD,2022-11-23 19:08:09,15.08835394,0.0001807,53.2159,159.6152,57.8425,302.2742,0.00050119,7.696e-05,0.0,0 STARLINK-4088,1 53155U 22083Z   22327.79733220  .00007696  00000-0  50119-3 0  9990,2 53155  53.2159 159.6152 0001807  57.8425 302.2742 15.08835394 20550,6917.894,95.438,541.01,538.509,0.0
53155.0,STARLINK-4088,PAYLOAD,2022-11-24 06:15:51,15.08844206,0.0001805,53.2158,157.5336,56.7987,303.3178,0.00027982,4.169e-05,0.0,0 STARLINK-4088,1 53155U 22083Z   22328.26100807  .00004169  00000-0  27982-3 0  9996,2 53155  53.2158 157.5336 0001805  56.7987 303.3178 15.08844206 20624,6917.868,95.437,540.981,538.484,0.0
53155.0,STARLINK-4088,PAYLOAD,2022-11-24 12:37:23,15.08845099,0.0001823,53.2158,156.3441,57.7947,302.3222,0.00025082,3.707e-05,0.0,0 STARLINK-4088,1 53155U 22083Z   22328.52596778  .00003707  00000-0  25082-3 0  9997,2 53155  53.2158 156.3441 0001823  57.7947 302.3222 15.08845099 20658,6917.865,95.437,540.991,538.469,0.0
53155.0,STARLINK-4088,PAYLOAD,2022-11-24 18:58:56,15.08847943,0.0001838,53.2159,155.1547,57.972,302.145,0.0002768999999999,4.122e-05,0.0,0 STARLINK-4088,1 53155U 22083Z   22328.79092633  .00004122  00000-0  27690-3 0  9996,2 53155  53.2159 155.1547 0001838  57.9720 302.1450 15.08847943 20707,6917.856,95.437,540.993,538.45,0.0
53155.0,STARLINK-4088,PAYLOAD,2022-11-25 06:06:37,15.08849748,0.0001868,53.2159,153.0731,57.9737,302.1436,0.00023689,3.485e-05,0.0,0 STARLINK-4088,1 53155U 22083Z   22329.25460337  .00003485  00000-0  23689-3 0  9993,2 53155  53.2159 153.0731 0001868  57.9737 302.1436 15.08849748 20776,6917.851,95.437,541.008,538.423,0.0
53155.0,STARLINK-4088,PAYLOAD,2022-11-25 18:49:42,15.08856925,0.0001883,53.2161,150.6939,60.2562,299.8617,0.00031562,4.741e-05,0.0,0 STARLINK-4088,1 53155U 22083Z   22329.78451814  .00004741  00000-0  31562-3 0  9996,2 53155  53.2161 150.6939 0001883  60.2562 299.8617 15.08856925 20848,6917.829000000002,95.436,540.996,538.391,0.0
53155.0,STARLINK-4088,PAYLOAD,2022-11-25 20:25:05,15.08846933,0.0001892,53.2161,150.39700000000005,58.0979,302.0197,0.00011977,1.619e-05,0.0,0 STARLINK-4088,1 53155U 22083Z   22329.85076193  .00001619  00000-0  11977-3 0  9996,2 53155  53.2161 150.3970 0001892  58.0979 302.0197 15.08846933 20867,6917.859,95.437,541.033,538.415,0.0
53155.0,STARLINK-4088,PAYLOAD,2022-11-25 23:35:52,15.088413699999998,0.0001858,53.216,149.80200000000005,60.52,299.5977,6.303e-06,-1.88e-06,0.0,0 STARLINK-4088,1 53155U 22083Z   22329.98324375 -.00000188  00000-0  63030-5 0  9998,2 53155  53.2160 149.8020 0001858  60.5200 299.5977 15.08841370 20879,6917.876,95.437,541.0269999999998,538.456,0.0
53155.0,STARLINK-4088,PAYLOAD,2022-11-26 12:18:57,15.08842589,0.0001863,53.216,147.4228,59.8834,300.2342,3.2982e-05,2.37e-06,0.0,0 STARLINK-4088,1 53155U 22083Z   22330.51316261  .00000237  00000-0  32982-4 0  9999,2 53155  53.2160 147.4228 0001863  59.8834 300.2342 15.08842589 20962,6917.871999999999,95.437,541.026,538.4490000000002,0.0
53155.0,STARLINK-4088,PAYLOAD,2022-11-26 18:40:29,15.0884268,0.0001853,53.2162,146.2335,59.2463,300.8711,3.8961e-05,3.32e-06,0.0,0 STARLINK-4088,1 53155U 22083Z   22330.77812218  .00000332  00000-0  38961-4 0  9999,2 53155  53.2162 146.2335 0001853  59.2463 300.8711 15.08842680 21005,6917.871999999999,95.437,541.019,538.455,0.0
53155.0,STARLINK-4088,PAYLOAD,2022-11-27 12:09:44,15.08843316,0.0001876,53.2165,142.9627,59.69,300.4278,7.6462e-05,9.29e-06,0.0,0 STARLINK-4088,1 53155U 22083Z   22331.50676096  .00000929  00000-0  76462-4 0  9993,2 53155  53.2165 142.9627 0001876  59.6900 300.4278 15.08843316 21113,6917.87,95.437,541.033,538.437,0.0
53155.0,STARLINK-4088,PAYLOAD,2022-11-27 16:55:53,15.08844639,0.0001917,53.2166,142.0706,60.465,299.6533,9.4192e-05,1.211e-05,0.0,0 STARLINK-4088,1 53155U 22083Z   22331.70548013  .00001211  00000-0  94192-4 0  9997,2 53155  53.2166 142.0706 0001917  60.4650 299.6533 15.08844639 21135,6917.866,95.437,541.057,538.405,0.0
53155.0,STARLINK-4088,PAYLOAD,2022-11-27 20:06:39,15.08846534,0.0001869,53.2166,141.4759,58.8097,301.3078,0.00012625,1.722e-05,0.0,0 STARLINK-4088,1 53155U 22083Z   22331.83795963  .00001722  00000-0  12625-3 0  9996,2 53155  53.2166 141.4759 0001869  58.8097 301.3078 15.08846534 21162,6917.86,95.437,541.018,538.432,0.0
53155.0,STARLINK-4088,PAYLOAD,2022-11-28 18:22:03,15.08835473,0.0001842,53.2169,137.3128,59.6694,300.448,-2.0633e-05,-6.16e-06,0.0,0 STARLINK-4088,1 53155U 22083Z   22332.76532315 -.00000616  00000-0 -20633-4 0  9991,2 53155  53.2169 137.3128 0001842  59.6694 300.4480 15.08835473 21293,6917.894,95.438,541.034,538.485,0.0
53155.0,STARLINK-4088,PAYLOAD,2022-11-28 23:08:13,15.08833692,0.0001801,53.2176,136.4208,58.8333,301.2836,1.8873e-05,1.2e-07,0.0,0 STARLINK-4088,1 53155U 22083Z   22332.96404781  .00000012  00000-0  18873-4 0  9999,2 53155  53.2176 136.4208 0001801  58.8333 301.2836 15.08833692 21336,6917.9,95.438,541.011,538.519,0.0
53155.0,STARLINK-4088,PAYLOAD,2022-11-29 19:48:14,15.08841113,0.000179,53.2177,132.5549,59.5552,300.5616,3.5446e-05,2.76e-06,0.0,0 STARLINK-4088,1 53155U 22083Z   22333.82516406  .00000276  00000-0  35446-4 0  9990,2 53155  53.2177 132.5549 0001790  59.5552 300.5616 15.08841113 21469,6917.877,95.437,540.98,538.504,0.0
53155.0,STARLINK-4088,PAYLOAD,2022-11-29 22:59:00,15.08841401,0.0001795,53.2176,131.9602,59.1012,301.0156,3.4514e-05,2.61e-06,0.0,0 STARLINK-4088,1 53155U 22083Z   22333.95764369  .00000261  00000-0  34514-4 0  9996,2 53155  53.2176 131.9602 0001795  59.1012 301.0156 15.08841401 21479,6917.876,95.437,540.9830000000002,538.499,0.0
53155.0,STARLINK-4088,PAYLOAD,2022-11-30 13:17:28,15.08840045,0.0001774,53.2177,129.2839,59.1532,300.9635,0.00013687,1.891e-05,0.0,0 STARLINK-4088,1 53155U 22083Z   22334.55380034  .00001891  00000-0  13687-3 0  9993,2 53155  53.2177 129.2839 0001774  59.1532 300.9635 15.08840045 21570,6917.88,95.438,540.972,538.518,0.0
53155.0,STARLINK-4088,PAYLOAD,2022-11-30 19:39:00,15.08843339,0.0001799,53.2177,128.0945,59.3545,300.7625,0.00015607,2.197e-05,0.0,0 STARLINK-4088,1 53155U 22083Z   22334.81875797  .00002197  00000-0  15607-3 0  9991,2 53155  53.2177 128.0945 0001799  59.3545 300.7625 15.08843339 21619,6917.87,95.437,540.98,538.491,0.0
53155.0,STARLINK-4088,PAYLOAD,2022-12-01 13:08:15,15.08839488,0.0001829,53.2178,124.8238,59.8394,300.2779,5.0231e-05,5.11e-06,0.0,0 STARLINK-4088,1 53155U 22083Z   22335.54740397  .00000511  00000-0  50231-4 0  9990,2 53155  53.2178 124.8238 0001829  59.8394 300.2779 15.08839488 21727,6917.882,95.438,541.012,538.482,0.0
53155.0,STARLINK-4088,PAYLOAD,2022-12-01 19:29:48,15.08841109,0.0001851,53.2179,123.6345,60.0071,300.1104,5.8613e-05,6.45e-06,0.0,0 STARLINK-4088,1 53155U 22083Z   22335.81236255  .00000645  00000-0  58613-4 0  9993,2 53155  53.2179 123.6345 0001851  60.0071 300.1104 15.08841109 21763,6917.877,95.437,541.0219999999998,538.462,0.0
